[{"OBJECT_NAME":"STARLINK-3315","OBJECT_ID":"2022-001AX","EPOCH":"2026-03-09T12:36:12.160800","MEAN_MOTION":15.08860134,"ECCENTRICITY":0.00012256,"INCLINATION":53.2183,"RA_OF_ASC_NODE":179.8661,"ARG_OF_PERICENTER":74.4783,"MEAN_ANOMALY":285.6345,"EPHEMERIS_TYPE":0,"CLASSIFICATION_TYPE":"U","NORAD_CAT_ID":50848,"ELEMENT_SET_NO":999,"REV_AT_EPOCH":23024,"BSTAR":0.00017476248,"MEAN_MOTION_DOT":2.496e-5,"MEAN_MOTION_DDOT":0},{"OBJECT_NAME":"COSMOS 2535 DEB","OBJECT_ID":"2019-039H","EPOCH":"2026-03-09T01:37:49.505376","MEAN_MOTION":15.12536261,"ECCENTRICITY":0.00199509,"INCLINATION":97.5365,"RA_OF_ASC_NODE":108.6978,"ARG_OF_PERICENTER":50.248,"MEAN_ANOMALY":310.0505,"EPHEMERIS_TYPE":0,"CLASSIFICATION_TYPE":"U","NORAD_CAT_ID":44631,"ELEMENT_SET_NO":999,"REV_AT_EPOCH":34980,"BSTAR":0.00071319108,"MEAN_MOTION_DOT":0.00012434,"MEAN_MOTION_DDOT":0}]
